[{"OBJECT_NAME":"YAOGAN-39 04B","OBJECT_ID":"2023-163C","EPOCH":"2026-03-09T21:42:05.108256","MEAN_MOTION":15.16740453,"ECCENTRICITY":0.00026845,"INCLINATION":34.9928,"RA_OF_ASC_NODE":267.8227,"ARG_OF_PERICENTER":59.5267,"MEAN_ANOMALY":300.571,"EPHEMERIS_TYPE":0,"CLASSIFICATION_TYPE":"U","NORAD_CAT_ID":58143,"ELEMENT_SET_NO":999,"REV_AT_EPOCH":13222,"BSTAR":0.00037765963,"MEAN_MOTION_DOT":7.552e-5,"MEAN_MOTION_DDOT":0},{"OBJECT_NAME":"THORAD AGENA D DEB","OBJECT_ID":"1969-082Z","EPOCH":"2026-03-09T07:18:45.871776","MEAN_MOTION":15.11837328,"ECCENTRICITY":0.00204275,"INCLINATION":70.0067,"RA_OF_ASC_NODE":36.7332,"ARG_OF_PERICENTER":221.6463,"MEAN_ANOMALY":138.3149,"EPHEMERIS_TYPE":0,"CLASSIFICATION_TYPE":"U","NORAD_CAT_ID":4157,"ELEMENT_SET_NO":999,"REV_AT_EPOCH":97934,"BSTAR":0.0014373482,"MEAN_MOTION_DOT":0.00024719,"MEAN_MOTION_DDOT":0}]
